start=new Date('2023-03-14T00:00:00.000Z').valueOf();
sats=[{"ECCENTRICITY":"0.00014260","REV_AT_EPOCH":"12751","APOAPSIS":"547.972","OBJECT_ID":"2020-088Y","DECAY_DATE":null,"TIME_SYSTEM":"UTC","FILE":"3859631","INCLINATION":"53.0530","MEAN_ANOMALY":"286.9272","SEMIMAJOR_AXIS":"6925.119","REF_FRAME":"TEME","SITE":"AFETR","ARG_OF_PERICENTER":"73.1873","RA_OF_ASC_NODE":"144.2076","MEAN_ELEMENT_THEORY":"SGP4","CENTER_NAME":"EARTH","LAUNCH_DATE":"2020-11-25","OBJECT_TYPE":"PAYLOAD","OBJECT_NAME":"STARLINK-1857","COUNTRY_CODE":"US","RCS_SIZE":"LARGE","PERIOD":"95.587","MEAN_MOTION":"15.06474777","TLE_LINE1":"1 47144U 20088Y   23072.59845267  .00035582  00000-0  23908-2 0  9995","PERIAPSIS":"545.997","GP_ID":"228031172","BSTAR":"0.00239080000000","NORAD_CAT_ID":"47144","EPHEMERIS_TYPE":"0","ELEMENT_SET_NO":"999","MEAN_MOTION_DOT":"0.00035582","MEAN_MOTION_DDOT":"0.0000000000000","EPOCH":"2023-03-13T14:21:46.310688","CLASSIFICATION_TYPE":"U","TLE_LINE2":"2 47144  53.0530 144.2076 0001426  73.1873 286.9272 15.06474777127514"},{"LAUNCH_DATE":"2020-11-25","OBJECT_NAME":"STARLINK-1860","COUNTRY_CODE":"US","RCS_SIZE":"LARGE","PERIOD":"95.594","OBJECT_TYPE":"PAYLOAD","DECAY_DATE":null,"OBJECT_ID":"2020-088AB","TIME_SYSTEM":"UTC","ECCENTRICITY":"0.00014780","REV_AT_EPOCH":"12753","APOAPSIS":"548.303","MEAN_ANOMALY":"272.5490","SEMIMAJOR_AXIS":"6925.415","REF_FRAME":"TEME","SITE":"AFETR","ARG_OF_PERICENTER":"87.5668","RA_OF_ASC_NODE":"162.9034","MEAN_ELEMENT_THEORY":"SGP4","CENTER_NAME":"EARTH","INCLINATION":"53.0559","FILE":"3859472","ELEMENT_SET_NO":"999","MEAN_MOTION_DOT":"-0.00001803","EPHEMERIS_TYPE":"0","TLE_LINE2":"2 47147  53.0559 162.9034 0001478  87.5668 272.5490 15.06378407127535","MEAN_MOTION_DDOT":"0.0000000000000","EPOCH":"2023-03-13T21:18:23.603616","CLASSIFICATION_TYPE":"U","PERIAPSIS":"546.256","MEAN_MOTION":"15.06378407","TLE_LINE1":"1 47147U 20088AB  23072.88777319 -.00001803  00000-0 -10222-3 0  9999","BSTAR":"-0.00010222000000","GP_ID":"228008512","NORAD_CAT_ID":"47147"},{"LAUNCH_DATE":"2020-11-25","OBJECT_TYPE":"PAYLOAD","PERIOD":"95.586","OBJECT_NAME":"STARLINK-1861","RCS_SIZE":"LARGE","COUNTRY_CODE":"US","APOAPSIS":"547.894","ECCENTRICITY":"0.00013770","REV_AT_EPOCH":"12732","TIME_SYSTEM":"UTC","OBJECT_ID":"2020-088AC","DECAY_DATE":null,"INCLINATION":"53.0537","FILE":"3859425","ARG_OF_PERICENTER":"109.0115","RA_OF_ASC_NODE":"155.6963","MEAN_ELEMENT_THEORY":"SGP4","CENTER_NAME":"EARTH","SEMIMAJOR_AXIS":"6925.075","MEAN_ANOMALY":"251.1023","REF_FRAME":"TEME","SITE":"AFETR","EPHEMERIS_TYPE":"0","ELEMENT_SET_NO":"999","MEAN_MOTION_DOT":"0.00036671","EPOCH":"2023-03-13T06:22:43.536288","CLASSIFICATION_TYPE":"U","MEAN_MOTION_DDOT":"0.0000000000000","TLE_LINE2":"2 47148  53.0537 155.6963 0001377 109.0115 251.1023 15.06489103127325","MEAN_MOTION":"15.06489103","TLE_LINE1":"1 47148U 20088AC  23072.26578167  .00036671  00000-0  24621-2 0  9998","PERIAPSIS":"545.987","NORAD_CAT_ID":"47148","GP_ID":"228000785","BSTAR":"0.00246210000000"},{"EPHEMERIS_TYPE":"0","MEAN_MOTION_DOT":"0.00003465","ELEMENT_SET_NO":"999","MEAN_MOTION_DDOT":"0.0000000000000","EPOCH":"2023-03-13T05:28:22.182528","CLASSIFICATION_TYPE":"U","TLE_LINE2":"2 47149  53.0520 165.8685 0001244  75.8689 284.2438 15.06393474127918","TLE_LINE1":"1 47149U 20088AD  23072.22803452  .00003465  00000-0  25146-3 0  9992","MEAN_MOTION":"15.06393474","PERIAPSIS":"546.372","BSTAR":"0.00025146000000","GP_ID":"228001040","NORAD_CAT_ID":"47149","LAUNCH_DATE":"2020-11-25","OBJECT_TYPE":"PAYLOAD","COUNTRY_CODE":"US","RCS_SIZE":"LARGE","OBJECT_NAME":"STARLINK-1862","PERIOD":"95.593","REV_AT_EPOCH":"12791","ECCENTRICITY":"0.00012440","APOAPSIS":"548.095","OBJECT_ID":"2020-088AD","DECAY_DATE":null,"TIME_SYSTEM":"UTC","FILE":"3859425","INCLINATION":"53.0520","SITE":"AFETR","SEMIMAJOR_AXIS":"6925.369","REF_FRAME":"TEME","MEAN_ANOMALY":"284.2438","CENTER_NAME":"EARTH","ARG_OF_PERICENTER":"75.8689","RA_OF_ASC_NODE":"165.8685","MEAN_ELEMENT_THEORY":"SGP4"},{"ELEMENT_SET_NO":"999","MEAN_MOTION_DOT":"0.00013695","EPHEMERIS_TYPE":"0","TLE_LINE2":"2 47150  53.0516 155.3024 0001533  81.3801 278.7362 15.06413839127344","MEAN_MOTION_DDOT":"0.0000000000000","CLASSIFICATION_TYPE":"U","EPOCH":"2023-03-13T08:30:10.287936","PERIAPSIS":"546.109","MEAN_MOTION":"15.06413839","TLE_LINE1":"1 47150U 20088AE  23072.35428574  .00013695  00000-0  93612-3 0  9995","BSTAR":"0.00093612000000","GP_ID":"227999295","NORAD_CAT_ID":"47150","LAUNCH_DATE":"2020-11-25","OBJECT_NAME":"STARLINK-1863","RCS_SIZE":"LARGE","COUNTRY_CODE":"US","PERIOD":"95.591","OBJECT_TYPE":"PAYLOAD","OBJECT_ID":"2020-088AE","DECAY_DATE":null,"TIME_SYSTEM":"UTC","ECCENTRICITY":"0.00015330","REV_AT_EPOCH":"12734","APOAPSIS":"548.233","MEAN_ANOMALY":"278.7362","SEMIMAJOR_AXIS":"6925.306","REF_FRAME":"TEME","SITE":"AFETR","ARG_OF_PERICENTER":"81.3801","RA_OF_ASC_NODE":"155.3024","MEAN_ELEMENT_THEORY":"SGP4","CENTER_NAME":"EARTH","INCLINATION":"53.0516","FILE":"3859425"},{"EPHEMERIS_TYPE":"0","ELEMENT_SET_NO":"999","MEAN_MOTION_DOT":"-0.00032957","EPOCH":"2023-03-13T19:37:32.489760","CLASSIFICATION_TYPE":"U","MEAN_MOTION_DDOT":"0.0000000000000","TLE_LINE2":"2 47151  53.0515 163.2220 0001644  73.6852 286.4318 15.06437250127512","MEAN_MOTION":"15.06437250","TLE_LINE1":"1 47151U 20088AF  23072.81773715 -.00032957  00000-0 -22016-2 0  9990","PERIAPSIS":"545.961","NORAD_CAT_ID":"47151","BSTAR":"-0.00220160000000","GP_ID":"228008751","LAUNCH_DATE":"2020-11-25","OBJECT_TYPE":"PAYLOAD","PERIOD":"95.590","OBJECT_NAME":"STARLINK-1864","RCS_SIZE":"LARGE","COUNTRY_CODE":"US","APOAPSIS":"548.238","ECCENTRICITY":"0.00016440","REV_AT_EPOCH":"12751","TIME_SYSTEM":"UTC","OBJECT_ID":"2020-088AF","DECAY_DATE":null,"INCLINATION":"53.0515","FILE":"3859487","ARG_OF_PERICENTER":"73.6852","RA_OF_ASC_NODE":"163.2220","MEAN_ELEMENT_THEORY":"SGP4","CENTER_NAME":"EARTH","MEAN_ANOMALY":"286.4318","SEMIMAJOR_AXIS":"6925.234","REF_FRAME":"TEME","SITE":"AFETR"},{"TLE_LINE2":"2 47152  53.0548 165.6701 0001630  62.1518 297.9637 15.06476982127185","MEAN_MOTION_DDOT":"0.0000000000000","CLASSIFICATION_TYPE":"U","EPOCH":"2023-03-13T06:30:37.526688","MEAN_MOTION_DOT":"0.00019177","ELEMENT_SET_NO":"999","EPHEMERIS_TYPE":"0","GP_ID":"228000286","BSTAR":"0.00130010000000","NORAD_CAT_ID":"47152","PERIAPSIS":"545.849","TLE_LINE1":"1 47152U 20088AG  23072.27126767  .00019177  00000-0  13001-2 0  9991","MEAN_MOTION":"15.06476982","COUNTRY_CODE":"US","RCS_SIZE":"LARGE","OBJECT_NAME":"STARLINK-1866","PERIOD":"95.587","OBJECT_TYPE":"PAYLOAD","LAUNCH_DATE":"2020-11-25","SITE":"AFETR","MEAN_ANOMALY":"297.9637","SEMIMAJOR_AXIS":"6925.113","REF_FRAME":"TEME","CENTER_NAME":"EARTH","ARG_OF_PERICENTER":"62.1518","RA_OF_ASC_NODE":"165.6701","MEAN_ELEMENT_THEORY":"SGP4","FILE":"3859425","INCLINATION":"53.0548","OBJECT_ID":"2020-088AG","DECAY_DATE":null,"TIME_SYSTEM":"UTC","REV_AT_EPOCH":"12718","ECCENTRICITY":"0.00016300","APOAPSIS":"548.106"},{"OBJECT_TYPE":"PAYLOAD","OBJECT_NAME":"STARLINK-1867","RCS_SIZE":"LARGE","COUNTRY_CODE":"US","PERIOD":"95.592","LAUNCH_DATE":"2020-11-25","INCLINATION":"53.0537","FILE":"3859425","REF_FRAME":"TEME","SEMIMAJOR_AXIS":"6925.363","MEAN_ANOMALY":"288.1468","SITE":"AFETR","RA_OF_ASC_NODE":"170.3273","ARG_OF_PERICENTER":"71.9725","MEAN_ELEMENT_THEORY":"SGP4","CENTER_NAME":"EARTH","ECCENTRICITY":"0.00018740","REV_AT_EPOCH":"12713","APOAPSIS":"548.526","DECAY_DATE":null,"OBJECT_ID":"2020-088AH","TIME_SYSTEM":"UTC","MEAN_MOTION_DDOT":"0.0000000000000","EPOCH":"2023-03-13T09:39:53.286048","CLASSIFICATION_TYPE":"U","TLE_LINE2":"2 47153  53.0537 170.3273 0001874  71.9725 288.1468 15.06395272127130","EPHEMERIS_TYPE":"0","ELEMENT_SET_NO":"999","MEAN_MOTION_DOT":"-0.00010286","GP_ID":"228001042","BSTAR":"-0.00067271000000","NORAD_CAT_ID":"47153","MEAN_MOTION":"15.06395272","TLE_LINE1":"1 47153U 20088AH  23072.40270007 -.00010286  00000-0 -67271-3 0  9997","PERIAPSIS":"545.930"},{"MEAN_MOTION_DOT":"-0.00011977","ELEMENT_SET_NO":"999","EPHEMERIS_TYPE":"0","TLE_LINE2":"2 47154  53.0537 153.1152 0002750  45.5270 314.5944 15.06389149127412","CLASSIFICATION_TYPE":"U","EPOCH":"2023-03-13T20:10:48.774720","MEAN_MOTION_DDOT":"0.0000000000000","PERIAPSIS":"545.342","TLE_LINE1":"1 47154U 20088AJ  23072.84084230 -.00011977  00000-0 -78662-3 0  9991","MEAN_MOTION":"15.06389149","NORAD_CAT_ID":"47154","GP_ID":"228031173","BSTAR":"-0.00078662000000","LAUNCH_DATE":"2020-11-25","PERIOD":"95.593","COUNTRY_CODE":"US","RCS_SIZE":"LARGE","OBJECT_NAME":"STARLINK-1868","OBJECT_TYPE":"PAYLOAD","TIME_SYSTEM":"UTC","OBJECT_ID":"2020-088AJ","DECAY_DATE":null,"APOAPSIS":"549.151","REV_AT_EPOCH":"12741","ECCENTRICITY":"0.00027500","CENTER_NAME":"EARTH","RA_OF_ASC_NODE":"153.1152","ARG_OF_PERICENTER":"45.5270","MEAN_ELEMENT_THEORY":"SGP4","SITE":"AFETR","SEMIMAJOR_AXIS":"6925.382","MEAN_ANOMALY":"314.5944","REF_FRAME":"TEME","INCLINATION":"53.0537","FILE":"3859631"},{"DECAY_DATE":null,"OBJECT_ID":"2020-088AK","TIME_SYSTEM":"UTC","ECCENTRICITY":"0.00015830","REV_AT_EPOCH":"12706","APOAPSIS":"548.325","SEMIMAJOR_AXIS":"6925.364","MEAN_ANOMALY":"295.6691","REF_FRAME":"TEME","SITE":"AFETR","RA_OF_ASC_NODE":"175.0453","ARG_OF_PERICENTER":"64.4461","MEAN_ELEMENT_THEORY":"SGP4","CENTER_NAME":"EARTH","FILE":"3859425","INCLINATION":"53.0540","LAUNCH_DATE":"2020-11-25","OBJECT_NAME":"STARLINK-1869","RCS_SIZE":"LARGE","COUNTRY_CODE":"US","PERIOD":"95.592","OBJECT_TYPE":"PAYLOAD","PERIAPSIS":"546.133","MEAN_MOTION":"15.06394936","TLE_LINE1":"1 47155U 20088AK  23072.41141062  .00002277  00000-0  17176-3 0  9996","BSTAR":"0.00017176000000","GP_ID":"228000544","NORAD_CAT_ID":"47155","ELEMENT_SET_NO":"999","MEAN_MOTION_DOT":"0.00002277","EPHEMERIS_TYPE":"0","TLE_LINE2":"2 47155  53.0540 175.0453 0001583  64.4461 295.6691 15.06394936127068","MEAN_MOTION_DDOT":"0.0000000000000","CLASSIFICATION_TYPE":"U","EPOCH":"2023-03-13T09:52:25.877568"}];
